[
  {
    "COMMENT": "GENERATED VIA SPACETRACK.ORG API",
    "ORIGINATOR": "18 SPCS",
    "NORAD_CAT_ID": "43682",
    "OBJECT_NAME": "H-2A R/B",
    "OBJECT_TYPE": "ROCKET BODY",
    "CLASSIFICATION_TYPE": "U",
    "INTLDES": "18084L",
    "EPOCH": "2023-05-28 01:32:20",
    "EPOCH_MICROSECONDS": "872608",
    "MEAN_MOTION": "15.08332658",
    "ECCENTRICITY": "0.0050615",
    "INCLINATION": "98.8958",
    "RA_OF_ASC_NODE": "169.0278",
    "ARG_OF_PERICENTER": "208.7275",
    "MEAN_ANOMALY": "151.116",
    "EPHEMERIS_TYPE": "0",
    "ELEMENT_SET_NO": "999",
    "REV_AT_EPOCH": "25118",
    "BSTAR": "0.00025846",
    "MEAN_MOTION_DOT": "0.00004046",
    "MEAN_MOTION_DDOT": "0",
    "FILE": "3919252",
    "TLE_LINE0": "0 H-2A R/B",
    "TLE_LINE1": "1 43682U 18084L   23148.06413047  .00004046  00000-0  25846-3 0  9999",
    "TLE_LINE2": "2 43682  98.8958 169.0278 0050615 208.7275 151.1160 15.08332658251186",
    "OBJECT_ID": "2018-084L",
    "OBJECT_NUMBER": "43682",
    "SEMIMAJOR_AXIS": "6919.432",
    "PERIOD": "95.470",
    "APOGEE": "576.319",
    "PERIGEE": "506.274",
    "DECAYED": "0"
  },
  {
    "COMMENT": "GENERATED VIA SPACETRACK.ORG API",
    "ORIGINATOR": "18 SPCS",
    "NORAD_CAT_ID": "43682",
    "OBJECT_NAME": "H-2A R/B",
    "OBJECT_TYPE": "ROCKET BODY",
    "CLASSIFICATION_TYPE": "U",
    "INTLDES": "18084L",
    "EPOCH": "2023-05-28 19:03:09",
    "EPOCH_MICROSECONDS": "308736",
    "MEAN_MOTION": "15.08340359",
    "ECCENTRICITY": "0.0050655",
    "INCLINATION": "98.8957",
    "RA_OF_ASC_NODE": "169.8722",
    "ARG_OF_PERICENTER": "206.247",
    "MEAN_ANOMALY": "153.6186",
    "EPHEMERIS_TYPE": "0",
    "ELEMENT_SET_NO": "999",
    "REV_AT_EPOCH": "25129",
    "BSTAR": "0.00029055",
    "MEAN_MOTION_DOT": "0.0000456",
    "MEAN_MOTION_DDOT": "0",
    "FILE": "3919498",
    "TLE_LINE0": "0 H-2A R/B",
    "TLE_LINE1": "1 43682U 18084L   23148.79385774  .00004560  00000-0  29055-3 0  9991",
    "TLE_LINE2": "2 43682  98.8957 169.8722 0050655 206.2470 153.6186 15.08340359251295",
    "OBJECT_ID": "2018-084L",
    "OBJECT_NUMBER": "43682",
    "SEMIMAJOR_AXIS": "6919.408",
    "PERIOD": "95.469",
    "APOGEE": "576.323",
    "PERIGEE": "506.223",
    "DECAYED": "0"
  },
  {
    "COMMENT": "GENERATED VIA SPACETRACK.ORG API",
    "ORIGINATOR": "18 SPCS",
    "NORAD_CAT_ID": "43682",
    "OBJECT_NAME": "H-2A R/B",
    "OBJECT_TYPE": "ROCKET BODY",
    "CLASSIFICATION_TYPE": "U",
    "INTLDES": "18084L",
    "EPOCH": "2023-05-28 22:14:12",
    "EPOCH_MICROSECONDS": "630048",
    "MEAN_MOTION": "15.08341625",
    "ECCENTRICITY": "0.0050662",
    "INCLINATION": "98.8957",
    "RA_OF_ASC_NODE": "170.0257",
    "ARG_OF_PERICENTER": "205.8059",
    "MEAN_ANOMALY": "154.0638",
    "EPHEMERIS_TYPE": "0",
    "ELEMENT_SET_NO": "999",
    "REV_AT_EPOCH": "25131",
    "BSTAR": "0.00029088",
    "MEAN_MOTION_DOT": "0.00004566",
    "MEAN_MOTION_DDOT": "0",
    "FILE": "3919546",
    "TLE_LINE0": "0 H-2A R/B",
    "TLE_LINE1": "1 43682U 18084L   23148.92653507  .00004566  00000-0  29088-3 0  9990",
    "TLE_LINE2": "2 43682  98.8957 170.0257 0050662 205.8059 154.0638 15.08341625251315",
    "OBJECT_ID": "2018-084L",
    "OBJECT_NUMBER": "43682",
    "SEMIMAJOR_AXIS": "6919.404",
    "PERIOD": "95.469",
    "APOGEE": "576.324",
    "PERIGEE": "506.214",
    "DECAYED": "0"
  },
  {
    "COMMENT": "GENERATED VIA SPACETRACK.ORG API",
    "ORIGINATOR": "18 SPCS",
    "NORAD_CAT_ID": "43682",
    "OBJECT_NAME": "H-2A R/B",
    "OBJECT_TYPE": "ROCKET BODY",
    "CLASSIFICATION_TYPE": "U",
    "INTLDES": "18084L",
    "EPOCH": "2023-05-29 14:09:29",
    "EPOCH_MICROSECONDS": "124288",
    "MEAN_MOTION": "15.08346914",
    "ECCENTRICITY": "0.0050683",
    "INCLINATION": "98.8957",
    "RA_OF_ASC_NODE": "170.7934",
    "ARG_OF_PERICENTER": "203.5472",
    "MEAN_ANOMALY": "156.3432",
    "EPHEMERIS_TYPE": "0",
    "ELEMENT_SET_NO": "999",
    "REV_AT_EPOCH": "25141",
    "BSTAR": "0.00027166",
    "MEAN_MOTION_DOT": "0.00004259",
    "MEAN_MOTION_DDOT": "0",
    "FILE": "3920065",
    "TLE_LINE0": "0 H-2A R/B",
    "TLE_LINE1": "1 43682U 18084L   23149.58992042  .00004259  00000-0  27166-3 0  9997",
    "TLE_LINE2": "2 43682  98.8957 170.7934 0050683 203.5472 156.3432 15.08346914251415",
    "OBJECT_ID": "2018-084L",
    "OBJECT_NUMBER": "43682",
    "SEMIMAJOR_AXIS": "6919.388",
    "PERIOD": "95.469",
    "APOGEE": "576.323",
    "PERIGEE": "506.183",
    "DECAYED": "0"
  },
  {
    "COMMENT": "GENERATED VIA SPACETRACK.ORG API",
    "ORIGINATOR": "18 SPCS",
    "NORAD_CAT_ID": "43682",
    "OBJECT_NAME": "H-2A R/B",
    "OBJECT_TYPE": "ROCKET BODY",
    "CLASSIFICATION_TYPE": "U",
    "INTLDES": "18084L",
    "EPOCH": "2023-05-29 18:56:04",
    "EPOCH_MICROSECONDS": "38432",
    "MEAN_MOTION": "15.08348329",
    "ECCENTRICITY": "0.0050689",
    "INCLINATION": "98.8955",
    "RA_OF_ASC_NODE": "171.0236",
    "ARG_OF_PERICENTER": "202.8735",
    "MEAN_ANOMALY": "157.0231",
    "EPHEMERIS_TYPE": "0",
    "ELEMENT_SET_NO": "999",
    "REV_AT_EPOCH": "25144",
    "BSTAR": "0.00026719",
    "MEAN_MOTION_DOT": "0.00004188",
    "MEAN_MOTION_DDOT": "0",
    "FILE": "3920354",
    "TLE_LINE0": "0 H-2A R/B",
    "TLE_LINE1": "1 43682U 18084L   23149.78893563  .00004188  00000-0  26719-3 0  9991",
    "TLE_LINE2": "2 43682  98.8955 171.0236 0050689 202.8735 157.0231 15.08348329251442",
    "OBJECT_ID": "2018-084L",
    "OBJECT_NUMBER": "43682",
    "SEMIMAJOR_AXIS": "6919.384",
    "PERIOD": "95.469",
    "APOGEE": "576.322",
    "PERIGEE": "506.175",
    "DECAYED": "0"
  },
  {
    "COMMENT": "GENERATED VIA SPACETRACK.ORG API",
    "ORIGINATOR": "18 SPCS",
    "NORAD_CAT_ID": "43682",
    "OBJECT_NAME": "H-2A R/B",
    "OBJECT_TYPE": "ROCKET BODY",
    "CLASSIFICATION_TYPE": "U",
    "INTLDES": "18084L",
    "EPOCH": "2023-05-30 01:18:10",
    "EPOCH_MICROSECONDS": "550592",
    "MEAN_MOTION": "15.08350669",
    "ECCENTRICITY": "0.0050705",
    "INCLINATION": "98.8955",
    "RA_OF_ASC_NODE": "171.3307",
    "ARG_OF_PERICENTER": "201.9869",
    "MEAN_ANOMALY": "157.918",
    "EPHEMERIS_TYPE": "0",
    "ELEMENT_SET_NO": "999",
    "REV_AT_EPOCH": "25148",
    "BSTAR": "0.00026472",
    "MEAN_MOTION_DOT": "0.00004148",
    "MEAN_MOTION_DDOT": "0",
    "FILE": "3920432",
    "TLE_LINE0": "0 H-2A R/B",
    "TLE_LINE1": "1 43682U 18084L   23150.05428878  .00004148  00000-0  26472-3 0  9998",
    "TLE_LINE2": "2 43682  98.8955 171.3307 0050705 201.9869 157.9180 15.08350669251487",
    "OBJECT_ID": "2018-084L",
    "OBJECT_NUMBER": "43682",
    "SEMIMAJOR_AXIS": "6919.376",
    "PERIOD": "95.469",
    "APOGEE": "576.326",
    "PERIGEE": "506.157",
    "DECAYED": "0"
  },
  {
    "COMMENT": "GENERATED VIA SPACETRACK.ORG API",
    "ORIGINATOR": "18 SPCS",
    "NORAD_CAT_ID": "43682",
    "OBJECT_NAME": "H-2A R/B",
    "OBJECT_TYPE": "ROCKET BODY",
    "CLASSIFICATION_TYPE": "U",
    "INTLDES": "18084L",
    "EPOCH": "2023-05-30 12:26:51",
    "EPOCH_MICROSECONDS": "863712",
    "MEAN_MOTION": "15.08354638",
    "ECCENTRICITY": "0.0050736",
    "INCLINATION": "98.8954",
    "RA_OF_ASC_NODE": "171.868",
    "ARG_OF_PERICENTER": "200.4172",
    "MEAN_ANOMALY": "159.5025",
    "EPHEMERIS_TYPE": "0",
    "ELEMENT_SET_NO": "999",
    "REV_AT_EPOCH": "25155",
    "BSTAR": "0.00025914",
    "MEAN_MOTION_DOT": "0.0000406",
    "MEAN_MOTION_DDOT": "0",
    "FILE": "3920920",
    "TLE_LINE0": "0 H-2A R/B",
    "TLE_LINE1": "1 43682U 18084L   23150.51865583  .00004060  00000-0  25914-3 0  9990",
    "TLE_LINE2": "2 43682  98.8954 171.8680 0050736 200.4172 159.5025 15.08354638251554",
    "OBJECT_ID": "2018-084L",
    "OBJECT_NUMBER": "43682",
    "SEMIMAJOR_AXIS": "6919.364",
    "PERIOD": "95.468",
    "APOGEE": "576.335",
    "PERIGEE": "506.123",
    "DECAYED": "0"
  },
  {
    "COMMENT": "GENERATED VIA SPACETRACK.ORG API",
    "ORIGINATOR": "18 SPCS",
    "NORAD_CAT_ID": "43682",
    "OBJECT_NAME": "H-2A R/B",
    "OBJECT_TYPE": "ROCKET BODY",
    "CLASSIFICATION_TYPE": "U",
    "INTLDES": "18084L",
    "EPOCH": "2023-05-30 18:48:58",
    "EPOCH_MICROSECONDS": "285152",
    "MEAN_MOTION": "15.08356776",
    "ECCENTRICITY": "0.0050762",
    "INCLINATION": "98.8953",
    "RA_OF_ASC_NODE": "172.175",
    "ARG_OF_PERICENTER": "199.527",
    "MEAN_ANOMALY": "160.4011",
    "EPHEMERIS_TYPE": "0",
    "ELEMENT_SET_NO": "999",
    "REV_AT_EPOCH": "25159",
    "BSTAR": "0.00025899",
    "MEAN_MOTION_DOT": "0.00004058",
    "MEAN_MOTION_DDOT": "0",
    "FILE": "3921192",
    "TLE_LINE0": "0 H-2A R/B",
    "TLE_LINE1": "1 43682U 18084L   23150.78400793  .00004058  00000-0  25899-3 0  9996",
    "TLE_LINE2": "2 43682  98.8953 172.1750 0050762 199.5270 160.4011 15.08356776251596",
    "OBJECT_ID": "2018-084L",
    "OBJECT_NUMBER": "43682",
    "SEMIMAJOR_AXIS": "6919.358",
    "PERIOD": "95.468",
    "APOGEE": "576.347",
    "PERIGEE": "506.099",
    "DECAYED": "0"
  }
]